{
  "type": "FeatureCollection",
  "features": [
    {
      "type": "Feature",
      "properties": {
        "norad_id": 66596,
        "name": "STARLINK-35811",
        "group": "last-30-days",
        "lat": -22.350803089118557,
        "lon": -136.6861560847593,
        "alt_km": 337.74782223252896,
        "timestamp": "2025-12-03T04:52:28.421722+00:00",
        "meta_object_name": "STARLINK-35811",
        "meta_object_id": "2025-270J",
        "meta_epoch": "2025-12-02T20:00:03.000384",
        "meta_mean_motion": 15.79319348,
        "meta_eccentricity": 0.0001676,
        "meta_inclination": 42.9988,
        "meta_ra_of_asc_node": 251.754,
        "meta_arg_of_pericenter": 269.4097,
        "meta_mean_anomaly": 112.9205,
        "meta_ephemeris_type": 0,
        "meta_classification_type": "U",
        "meta_norad_cat_id": 66596,
        "meta_element_set_no": 999,
        "meta_rev_at_epoch": 291,
        "meta_bstar": -0.010348,
        "meta_mean_motion_dot": -0.0170348,
        "meta_mean_motion_ddot": 0,
        "tle_line1": "1 66596U 25270J   25336.83336806 -.01703480  00000+0 -10348-1 0  9995",
        "tle_line2": "2 66596  42.9988 251.7540 0001676 269.4097 112.9205 15.79319348  2917"
      },
      "geometry": {
        "type": "Point",
        "coordinates": [
          -136.6861560847593,
          -22.350803089118557
        ]
      }
    },
    {
      "type": "Feature",
      "properties": {
        "norad_id": 66597,
        "name": "STARLINK-35820",
        "group": "last-30-days",
        "lat": -21.142156403636665,
        "lon": -135.02684864301906,
        "alt_km": 337.79928444657617,
        "timestamp": "2025-12-03T04:52:28.421738+00:00",
        "meta_object_name": "STARLINK-35820",
        "meta_object_id": "2025-270K",
        "meta_epoch": "2025-12-02T20:00:03.000384",
        "meta_mean_motion": 15.79312144,
        "meta_eccentricity": 0.0001806,
        "meta_inclination": 42.999,
        "meta_ra_of_asc_node": 251.7492,
        "meta_arg_of_pericenter": 263.7631,
        "meta_mean_anomaly": 120.5385,
        "meta_ephemeris_type": 0,
        "meta_classification_type": "U",
        "meta_norad_cat_id": 66597,
        "meta_element_set_no": 999,
        "meta_rev_at_epoch": 291,
        "meta_bstar": -0.010365,
        "meta_mean_motion_dot": -0.01705603,
        "meta_mean_motion_ddot": 0,
        "tle_line1": "1 66597U 25270K   25336.83336806 -.01705603  00000+0 -10365-1 0  9994",
        "tle_line2": "2 66597  42.9990 251.7492 0001806 263.7631 120.5385 15.79312144  2914"
      },
      "geometry": {
        "type": "Point",
        "coordinates": [
          -135.02684864301906,
          -21.142156403636665
        ]
      }
    },
    {
      "type": "Feature",
      "properties": {
        "norad_id": 66598,
        "name": "STARLINK-35981",
        "group": "last-30-days",
        "lat": -19.860301284710935,
        "lon": -133.3202667296037,
        "alt_km": 338.0574129060342,
        "timestamp": "2025-12-03T04:52:28.421748+00:00",
        "meta_object_name": "STARLINK-35981",
        "meta_object_id": "2025-270L",
        "meta_epoch": "2025-12-02T20:00:03.000384",
        "meta_mean_motion": 15.79280057,
        "meta_eccentricity": 0.0001648,
        "meta_inclination": 42.9987,
        "meta_ra_of_asc_node": 251.7438,
        "meta_arg_of_pericenter": 257.2191,
        "meta_mean_anomaly": 129.1843,
        "meta_ephemeris_type": 0,
        "meta_classification_type": "U",
        "meta_norad_cat_id": 66598,
        "meta_element_set_no": 999,
        "meta_rev_at_epoch": 264,
        "meta_bstar": -0.010431,
        "meta_mean_motion_dot": -0.01712747,
        "meta_mean_motion_ddot": 0,
        "tle_line1": "1 66598U 25270L   25336.83336806 -.01712747  00000+0 -10431-1 0  9996",
        "tle_line2": "2 66598  42.9987 251.7438 0001648 257.2191 129.1843 15.79280057  2645"
      },
      "geometry": {
        "type": "Point",
        "coordinates": [
          -133.3202667296037,
          -19.860301284710935
        ]
      }
    },
    {
      "type": "Feature",
      "properties": {
        "norad_id": 66599,
        "name": "STARLINK-35930",
        "group": "last-30-days",
        "lat": -18.646277785018214,
        "lon": -131.747648769332,
        "alt_km": 337.97834847249305,
        "timestamp": "2025-12-03T04:52:28.421762+00:00",
        "meta_object_name": "STARLINK-35930",
        "meta_object_id": "2025-270M",
        "meta_epoch": "2025-12-02T20:00:03.000384",
        "meta_mean_motion": 15.79294485,
        "meta_eccentricity": 0.0001561,
        "meta_inclination": 42.999,
        "meta_ra_of_asc_node": 251.7392,
        "meta_arg_of_pericenter": 258.3544,
        "meta_mean_anomaly": 129.9609,
        "meta_ephemeris_type": 0,
        "meta_classification_type": "U",
        "meta_norad_cat_id": 66599,
        "meta_element_set_no": 999,
        "meta_rev_at_epoch": 280,
        "meta_bstar": -0.010513,
        "meta_mean_motion_dot": -0.01725625,
        "meta_mean_motion_ddot": 0,
        "tle_line1": "1 66599U 25270M   25336.83336806 -.01725625  00000+0 -10513-1 0  9997",
        "tle_line2": "2 66599  42.9990 251.7392 0001561 258.3544 129.9609 15.79294485  2803"
      },
      "geometry": {
        "type": "Point",
        "coordinates": [
          -131.747648769332,
          -18.646277785018214
        ]
      }
    },
    {
      "type": "Feature",
      "properties": {
        "norad_id": 66600,
        "name": "STARLINK-35980",
        "group": "last-30-days",
        "lat": -17.352628046286206,
        "lon": -130.11504528031514,
        "alt_km": 337.9058245952392,
        "timestamp": "2025-12-03T04:52:28.421772+00:00",
        "meta_object_name": "STARLINK-35980",
        "meta_object_id": "2025-270N",
        "meta_epoch": "2025-12-02T20:00:03.000384",
        "meta_mean_motion": 15.79267926,
        "meta_eccentricity": 0.0001679,
        "meta_inclination": 42.9989,
        "meta_ra_of_asc_node": 251.7339,
        "meta_arg_of_pericenter": 260.7802,
        "meta_mean_anomaly": 129.5985,
        "meta_ephemeris_type": 0,
        "meta_classification_type": "U",
        "meta_norad_cat_id": 66600,
        "meta_element_set_no": 999,
        "meta_rev_at_epoch": 271,
        "meta_bstar": -0.010562,
        "meta_mean_motion_dot": -0.01730999,
        "meta_mean_motion_ddot": 0,
        "tle_line1": "1 66600U 25270N   25336.83336806 -.01730999  00000+0 -10562-1 0  9994",
        "tle_line2": "2 66600  42.9989 251.7339 0001679 260.7802 129.5985 15.79267926  2712"
      },
      "geometry": {
        "type": "Point",
        "coordinates": [
          -130.11504528031514,
          -17.352628046286206
        ]
      }
    },
    {
      "type": "Feature",
      "properties": {
        "norad_id": 66601,
        "name": "STARLINK-35978",
        "group": "last-30-days",
        "lat": -16.093881613196892,
        "lon": -128.5639358273526,
        "alt_km": 337.6107551434852,
        "timestamp": "2025-12-03T04:52:28.421782+00:00",
        "meta_object_name": "STARLINK-35978",
        "meta_object_id": "2025-270P",
        "meta_epoch": "2025-12-02T20:00:03.000384",
        "meta_mean_motion": 15.792722,
        "meta_eccentricity": 0.0001758,
        "meta_inclination": 42.9989,
        "meta_ra_of_asc_node": 251.7289,
        "meta_arg_of_pericenter": 269.2682,
        "meta_mean_anomaly": 123.0635,
        "meta_ephemeris_type": 0,
        "meta_classification_type": "U",
        "meta_norad_cat_id": 66601,
        "meta_element_set_no": 999,
        "meta_rev_at_epoch": 264,
        "meta_bstar": -0.010636,
        "meta_mean_motion_dot": -0.01742074,
        "meta_mean_motion_ddot": 0,
        "tle_line1": "1 66601U 25270P   25336.83336806 -.01742074  00000+0 -10636-1 0  9994",
        "tle_line2": "2 66601  42.9989 251.7289 0001758 269.2682 123.0635 15.79272200  2649"
      },
      "geometry": {
        "type": "Point",
        "coordinates": [
          -128.5639358273526,
          -16.093881613196892
        ]
      }
    },
    {
      "type": "Feature",
      "properties": {
        "norad_id": 66602,
        "name": "STARLINK-36050",
        "group": "last-30-days",
        "lat": -14.748275118291547,
        "lon": -126.94200169194045,
        "alt_km": 337.9779664060843,
        "timestamp": "2025-12-03T04:52:28.421792+00:00",
        "meta_object_name": "STARLINK-36050",
        "meta_object_id": "2025-270Q",
        "meta_epoch": "2025-12-02T20:00:03.000384",
        "meta_mean_motion": 15.79230027,
        "meta_eccentricity": 0.0001596,
        "meta_inclination": 42.9989,
        "meta_ra_of_asc_node": 251.7236,
        "meta_arg_of_pericenter": 258.2957,
        "meta_mean_anomaly": 136.1631,
        "meta_ephemeris_type": 0,
        "meta_classification_type": "U",
        "meta_norad_cat_id": 66602,
        "meta_element_set_no": 999,
        "meta_rev_at_epoch": 271,
        "meta_bstar": -0.010692,
        "meta_mean_motion_dot": -0.01747004,
        "meta_mean_motion_ddot": 0,
        "tle_line1": "1 66602U 25270Q   25336.83336806 -.01747004  00000+0 -10692-1 0  9995",
        "tle_line2": "2 66602  42.9989 251.7236 0001596 258.2957 136.1631 15.79230027  2715"
      },
      "geometry": {
        "type": "Point",
        "coordinates": [
          -126.94200169194045,
          -14.748275118291547
        ]
      }
    }
  ]
}